name,email,address,postalZip,region,country,phone
Mary Norris,cum.sociis@aol.couk,758-1253 Magna Road,61955,Dolnośląskie,Canada,1-612-746-4847
Donna Chan,sagittis.augue@icloud.ca,"Ap #576-1578 Non, Rd.",45484-55471,Samara Oblast,South Korea,(724) 286-4276
Ronan Thornton,eu.neque@outlook.edu,"P.O. Box 630, 4769 Aliquam Rd.",5628 PR,Ceará,Ireland,(866) 125-0641
Brenda Travis,porttitor@protonmail.ca,"841-8876 Nec, Street",555617,Lazio,Ukraine,1-437-351-0733
Dacey Wynn,malesuada.id@outlook.org,Ap #874-2290 Augue. Road,283462,Eastern Cape,Ukraine,1-772-754-7348
Indira Humphrey,pede.malesuada@icloud.edu,Ap #194-400 Sollicitudin Street,82-875,Connecticut,Sweden,(976) 215-0250
Erica Ingram,mi.duis@outlook.net,Ap #285-9706 Massa Street,198757,Noord Holland,Norway,1-677-554-6253
Skyler Adams,nullam.ut@aol.couk,"P.O. Box 456, 4320 Dui, Av.",843388,Tây Ninh,Belgium,1-843-628-7672
Sawyer Rose,cras.vulputate@outlook.com,"259-4632 Sed, Rd.",74133,Soccsksargen,Vietnam,(255) 693-4366
Ifeoma Reed,ligula.nullam@yahoo.net,"P.O. Box 750, 2137 Ornare Av.",46427,Styria,Turkey,1-395-441-8410
Petra Bryan,ac@icloud.edu,Ap #722-2756 Auctor St.,813346,Rivne oblast,Germany,1-464-870-1775
Gabriel Stephenson,ultricies.ligula@hotmail.couk,"P.O. Box 212, 6581 Sapien St.",N2V 4X2,Burgenland,Chile,1-615-437-8738
Mia Leach,diam@google.ca,262-9110 Dapibus Av.,52413,Loreto,Belgium,1-862-626-2180
Ashton Mitchell,pede.nonummy@yahoo.ca,9377 Id Road,29164,South Island,Brazil,1-314-314-3420
Jolie Curtis,ante@protonmail.com,518-4971 Fringilla Ave,7263,Mersin,Ireland,1-646-727-6889
Adria Hayes,eget@protonmail.net,Ap #392-4640 Ac Street,576155,Victoria,New Zealand,(831) 833-4253
Nichole Rush,adipiscing.non@outlook.edu,567-810 Fermentum Rd.,2812,Sindh,Chile,(556) 347-9163
Chiquita Mccoy,lacinia.vitae.sodales@icloud.net,Ap #165-2716 Vitae Rd.,343849,Castilla y León,Belgium,1-545-501-8857
Ivy Thornton,phasellus@icloud.org,Ap #880-417 Aliquam Avenue,7597,Cordillera Administrative Region,Netherlands,(852) 754-7820
Lars Garcia,aenean@yahoo.com,"Ap #224-1892 Nec, Avenue",368881,La Rioja,South Korea,1-716-484-4093
Kiara Stanton,ipsum.suspendisse@google.ca,"388-7861 Vel, Road",57-41,Guerrero,Australia,1-334-816-1323
Blake Glover,amet@hotmail.ca,Ap #469-3602 Donec Av.,23532,Upper Austria,Sweden,(723) 587-3427
Deirdre Bowman,lorem.vitae@google.com,712-1527 Interdum Av.,3412,Virginia,Brazil,1-873-318-3115
Burke Grimes,donec.tempor@yahoo.com,217-3191 Est. St.,4051,Zhōngnán,Ukraine,(187) 189-5341
Xavier Marquez,neque.nullam@icloud.com,"7972 Amet, Street",22-145,Île-de-France,South Africa,1-614-136-3547
Deacon Estrada,eu@protonmail.org,Ap #706-2128 Malesuada Av.,91676,Chernihiv oblast,Australia,1-576-874-7881
McKenzie Pearson,facilisis.vitae@icloud.couk,"P.O. Box 193, 4996 Parturient St.",82-085,British Columbia,France,1-208-255-3757
Alisa Hancock,mauris.vestibulum@hotmail.couk,223-934 Nibh Av.,74200,West-Vlaanderen,France,(605) 848-5223
Zenaida Mckee,sociis@icloud.couk,Ap #405-7482 Aliquet. Avenue,5804,Salzburg,Chile,(457) 863-6859
Carly William,consectetuer.mauris.id@icloud.org,217-3977 Cras Rd.,431416,Hertfordshire,Norway,(348) 885-6306
Yetta Mcfarland,ut@outlook.couk,Ap #901-5776 Quisque Rd.,535808,Zhōngnán,Brazil,1-672-428-6157
Burton Jensen,mauris.elit.dictum@google.edu,"P.O. Box 917, 4914 A St.",31158,Volyn oblast,Pakistan,1-212-778-5702
Buffy Ross,donec.egestas@icloud.net,714-470 Cubilia Road,782583,Cajamarca,Philippines,(347) 666-4836
Lester Ware,nec.diam@protonmail.net,Ap #982-4114 At Rd.,872649,Huáběi,Belgium,(826) 786-7782
Moses Morris,quis.accumsan.convallis@hotmail.org,448-9265 Ipsum Avenue,248631,Paraná,Netherlands,1-545-747-1254
Garrison Dale,maecenas@yahoo.ca,7434 Non Av.,153642,Tyrol,Canada,1-830-524-4735
Lynn Beard,nec@outlook.com,"P.O. Box 486, 1118 Sit Av.",16264,Eastern Visayas,Norway,(135) 634-5873
Hayden Hunter,nunc@google.net,453-3170 Nunc St.,471276,Munster,Costa Rica,1-240-712-1326
Cheryl Francis,justo.faucibus.lectus@hotmail.net,Ap #717-2485 Nunc Rd.,34442,Catalunya,Philippines,(836) 999-5676
Nyssa Valenzuela,elit.a@yahoo.org,608-6714 Vitae St.,1684,Benue,Peru,(578) 197-2127
Cruz Jenkins,mauris.non@google.com,9149 Mi Ave,4752,Newfoundland and Labrador,Pakistan,1-646-627-0877
Rowan Rivera,ultrices.duis@yahoo.net,541-5092 Nibh Avenue,245933,La Rioja,France,1-710-536-3155
Kenneth Roman,elit.pretium@protonmail.net,Ap #560-1353 Etiam St.,483009,Umbria,China,1-756-593-1324
Axel Kramer,massa@yahoo.ca,Ap #467-8415 Cras Ave,643651,Western Cape,Spain,(587) 695-7188
Kennedy Orr,posuere@yahoo.couk,110-7220 Amet Rd.,96284,Santa Catarina,Norway,(545) 286-5224
Jesse Wilson,urna@google.com,Ap #442-5936 Magna St.,152339,Zhytomyr oblast,Ireland,(717) 201-8324
Richard Finley,risus.donec.nibh@protonmail.ca,134-5332 Curae Road,6622,Yorkshire,South Korea,(937) 627-8313
Lysandra Gould,amet.orci@icloud.com,843-7825 Justo Rd.,932558,Lakshadweep,Italy,(276) 655-5667
Erica Woodard,risus.a@outlook.couk,948-9708 Nascetur Road,19182-82734,Punjab,Netherlands,1-706-332-3676
Cade Delacruz,a.arcu.sed@yahoo.edu,"271-5884 Nec, Road",7140,Guanajuato,Austria,(724) 776-2913
Scott Thompson,nam@google.net,Ap #159-2351 Nulla. Av.,66967,Northern Mindanao,India,1-287-784-7219
Rafael Sheppard,imperdiet.nec@yahoo.edu,Ap #955-7180 Vitae Street,36252,Île-de-France,Chile,1-922-250-1759
Erasmus Lopez,vitae.aliquam@google.couk,147-3483 Duis Street,50893,South Gyeongsang,Peru,1-517-224-6951
Keefe Calderon,tellus@hotmail.org,379-7295 Mollis. Rd.,2117,Gävleborgs län,South Africa,1-422-488-4118
Clare Vaughn,convallis.dolor@icloud.edu,"Ap #299-901 A, Road",7879,West Region,Poland,1-852-241-2568
Nolan Hicks,elit.pellentesque@outlook.org,272-3342 Curabitur Avenue,8521,Arunachal Pradesh,Spain,(516) 301-4354
Gay Justice,natoque.penatibus@aol.edu,152-8515 Magnis Road,47-066,Stockholms län,United Kingdom,(804) 878-7990
Kane Cook,fermentum.metus@google.net,Ap #666-1411 Donec Ave,02151,Friuli-Venezia Giulia,Netherlands,(442) 793-8626
Duncan Sosa,vitae@outlook.net,540-5239 Arcu. St.,C9N 7R9,Merionethshire,France,(167) 796-7151
Justine Haley,ligula.consectetuer.rhoncus@protonmail.org,"Ap #411-8639 Pharetra, Rd.",8710,Heredia,Vietnam,(773) 610-8286
Lael Lynn,curabitur.massa@yahoo.edu,4546 Accumsan St.,885128,Cantabria,Mexico,(866) 485-3329
Kirsten Mccullough,sodales@hotmail.couk,7904 Nonummy St.,807332,Sachsen-Anhalt,Singapore,(680) 818-8188
Jasper Cherry,sed.libero@protonmail.ca,Ap #733-1673 Luctus Street,7779,Khánh Hòa,Indonesia,(218) 741-9530
Xena Walton,diam.at.pretium@icloud.org,"P.O. Box 848, 273 Imperdiet Rd.",64-13,Maryland,Canada,(480) 552-4473
Daria Blackwell,non@protonmail.edu,Ap #979-3191 Et Avenue,35161,Huáběi,Philippines,1-578-532-8280
Jin Hancock,parturient@yahoo.com,2352 Fusce Road,847341,Limpopo,Russian Federation,1-223-962-6628
Lois Wolfe,dui.nec@hotmail.ca,495-3126 In St.,64-868,Heredia,Indonesia,1-863-222-2703
Lacey Price,erat.semper.rutrum@hotmail.couk,Ap #152-7293 Malesuada Road,7416,Pennsylvania,Canada,1-881-253-3778
Sopoline Harding,molestie.orci.tincidunt@google.org,808-1215 Risus. St.,338315,Tarapacá,Nigeria,(427) 512-3178
Vielka Love,proin@hotmail.edu,4917 Pede. Street,31-729,Friesland,Italy,(451) 665-4347
Macey Rosario,sapien.molestie@aol.org,"P.O. Box 576, 9078 Eu St.",4444,Lubuskie,United Kingdom,(583) 583-4667
Candace Hill,dapibus.id.blandit@icloud.ca,731-1837 Penatibus Av.,6451,South Island,Mexico,(458) 681-9946
Alec Sherman,interdum.libero@aol.com,Ap #417-6904 Nascetur Street,4724-7811,Free State,Netherlands,1-640-443-3935
Velma Barnes,fusce@aol.org,883-6272 Risus Av.,76362,Valle d'Aosta,Nigeria,(765) 883-2511
Candace Stanley,accumsan.convallis@hotmail.org,Ap #169-7439 Tellus. St.,771174,Gävleborgs län,France,(172) 861-5122
Armand Williamson,sed.dui@yahoo.org,"Ap #226-1506 Ornare, Rd.",14517,Antwerpen,South Africa,(208) 929-4342
Hunter Spencer,posuere.at.velit@protonmail.com,525-4617 Sed St.,23-421,Samara Oblast,Norway,1-386-764-2874
India Salazar,mollis@yahoo.net,"P.O. Box 670, 848 Mauris Road",6977,Connecticut,Italy,1-532-704-7639
Iola Moses,sapien@icloud.org,433-9324 Sed Avenue,6877,Wielkopolskie,Australia,1-735-225-9475
Cally Willis,pede.cras.vulputate@google.com,Ap #743-8431 Luctus St.,833357,Hessen,Australia,(181) 675-2110
Jason Spears,amet.orci.ut@google.ca,"P.O. Box 206, 3370 Malesuada St.",32896,Pernambuco,New Zealand,(187) 356-8553
Travis Aguirre,nulla.aliquet.proin@google.net,3228 Id Ave,19036,Ulster,Belgium,(824) 781-1321
Dale Leon,vivamus.sit.amet@hotmail.net,Ap #811-2257 Justo. Rd.,24-98,Limón,Russian Federation,1-235-727-5621
Ethan Walker,risus.donec.egestas@icloud.net,"P.O. Box 701, 2376 Neque. Road",851574,Nuevo León,United Kingdom,1-592-247-5324
Noelani Hernandez,dolor.egestas@outlook.org,Ap #178-2316 Est. Rd.,24784,Corse,United Kingdom,1-585-165-2174
Sarah Larsen,lacinia@google.net,"887-4538 Erat, Street",753371,Penza Oblast,Italy,(767) 948-1881
Chandler Page,ligula.elit@protonmail.net,Ap #621-8777 Mauris Road,323257,West Region,United States,1-568-937-5773
Alec Wood,aliquam.erat@outlook.org,"P.O. Box 505, 3502 Luctus Street",1647,Gävleborgs län,Australia,(772) 283-3283
Garrison Newman,placerat.velit.quisque@icloud.org,355-3195 Metus. Av.,5381,Maharastra,Spain,1-677-124-6851
Jenna Holmes,felis.orci.adipiscing@aol.ca,"P.O. Box 391, 7410 Orci Rd.",92761-877,Davao Region,South Africa,1-202-617-8617
Leila Moon,eu.tellus@google.edu,557-4630 Maecenas St.,74217,South Chungcheong,China,1-834-455-2773
Lance Villarreal,velit@google.com,3775 Laoreet Ave,C8W 7LJ,Soccsksargen,Netherlands,1-887-767-3666
Gray Tyson,nec.ante.blandit@aol.edu,Ap #776-6004 Lacinia Street,226419,Tarapacá,Russian Federation,(384) 123-7855
Macy Gibson,porta.elit.a@protonmail.org,"P.O. Box 312, 4761 Tincidunt St.",308751,Illes Balears,Costa Rica,1-617-322-7414
Aileen Kim,nullam@icloud.edu,"P.O. Box 232, 3583 Integer St.",43751,Quảng Bình,Italy,(778) 832-7462
Camille Newman,luctus.vulputate@hotmail.net,582-8283 Risus. Avenue,7781,Arica y Parinacota,India,1-197-650-2406
Judah Riggs,dolor@aol.org,Ap #931-3139 Sed St.,6352,Bretagne,Sweden,1-977-318-7123
Blake Carter,sed.malesuada@outlook.couk,692-9885 Ridiculus Av.,40811,Madhya Pradesh,South Korea,(378) 619-4421
Brianna Malone,integer.urna@icloud.couk,Ap #334-5361 Posuere Avenue,2218,Basilicata,Chile,(657) 234-8624
Barrett Carey,amet@protonmail.edu,157-4551 Eget Ave,2993,La Guajira,Netherlands,1-641-738-4482
Quinlan Hopkins,pharetra.nibh@aol.couk,"P.O. Box 383, 3903 Rutrum, Av.",F36 3HI,Minas Gerais,Norway,(511) 797-1196
Dennis Ferrell,et.ultrices@yahoo.edu,"P.O. Box 650, 2895 Integer Road",651973,Zeeland,China,1-951-746-0741
Cora Mcgowan,ut.quam.vel@outlook.com,Ap #701-5628 Sem. St.,32326,North Island,South Africa,1-319-922-4816
Stella Campbell,proin@outlook.org,280-1665 Neque. Avenue,29498,Bayern,Ukraine,(717) 383-4317
Stuart Mcintyre,risus.a@google.ca,"P.O. Box 128, 4945 Nisi. Av.",12218,Connacht,United Kingdom,1-735-237-7536
Cherokee Cannon,aptent.taciti@aol.net,828-6436 Eu St.,30006,Vienna,Sweden,1-486-696-1887
Nomlanga Holt,aliquam.nec@yahoo.ca,Ap #190-1133 Eros. Avenue,87280,Tarapacá,Russian Federation,(419) 388-9477
September Ross,phasellus.vitae.mauris@icloud.com,3700 Eu Av.,3008-8908,Coquimbo,Netherlands,1-847-622-6066
Madison Scott,nec.leo@protonmail.edu,189-4174 In St.,27031,Northwest Territories,Italy,(897) 642-0332
Kellie Crawford,sodales.purus.in@aol.couk,Ap #215-3154 Vestibulum. Av.,83112,Vologda Oblast,Pakistan,1-931-523-9286
Quinn Macdonald,sollicitudin.adipiscing.ligula@hotmail.ca,2729 Neque Street,0181-3559,Ulster,South Korea,1-995-128-7359
Xandra Peters,gravida.nunc@icloud.ca,Ap #297-2353 Nec Ave,26-835,North Sulawesi,Philippines,1-282-697-6145
Xanthus Conley,neque.sed@aol.com,"P.O. Box 364, 7597 Dui. Av.",8502,Newfoundland and Labrador,Colombia,1-772-833-4483
Alexandra Barron,aliquam.erat.volutpat@outlook.ca,"P.O. Box 255, 3874 Fusce Av.",432522,Ninh Thuận,Ireland,1-707-865-1673
Imogene Dodson,consectetuer.ipsum@google.net,6543 Posuere Road,I8R 4E8,Rio de Janeiro,United States,(542) 923-1425
Burke Santiago,quisque.varius.nam@icloud.ca,9978 Semper. Rd.,612734,Atacama,France,(842) 915-4056
Simon Henderson,pede.cum.sociis@hotmail.couk,812-1589 Lacus. St.,685592,Cartago,Ukraine,(466) 424-2346
Amir Harrell,purus.nullam@protonmail.edu,Ap #916-3140 Nisi. St.,73210-41273,Berlin,Philippines,(483) 278-0272
Guy Reynolds,integer.id@hotmail.couk,Ap #900-6491 Dolor Road,50811,Oost-Vlaanderen,Indonesia,(752) 874-1221
John Tucker,a@protonmail.couk,Ap #253-7672 Lacus. Road,364548,Western Visayas,Belgium,1-572-688-8711
Aileen Townsend,sapien.gravida@hotmail.com,"P.O. Box 668, 8825 Malesuada Rd.",2596,Gelderland,Australia,1-180-116-5379
Georgia Johnson,ante@google.net,472-2908 Rhoncus Av.,45412,Sevastopol City,Russian Federation,(767) 113-7266
Clarke Willis,placerat.cras@icloud.ca,"P.O. Box 812, 9067 Eu Rd.",28533,Banten,Mexico,1-490-548-6444
Jillian Newman,eu.erat@aol.org,"P.O. Box 381, 9881 Euismod Rd.",48168,Tambov Oblast,Italy,1-677-636-7178
Garrett Hutchinson,sapien.cursus.in@outlook.ca,151-9377 Magna. Avenue,24257,Renfrewshire,Brazil,(628) 440-0455
Nasim Kinney,nec.urna@outlook.couk,776-4059 Lectus. St.,64263,Nizhny Novgorod Oblast,France,(731) 577-7409
Indigo Hughes,morbi.tristique@outlook.net,Ap #262-5513 Nulla. Street,467213,La Rioja,Vietnam,(414) 745-5136
Lacota Bray,neque.sed.sem@hotmail.net,1942 Vitae Rd.,8642,Stockholms län,Chile,1-635-545-4723
Hadley Barker,nam@outlook.com,623-8031 Magna. Avenue,E5V 8K4,Puno,Spain,(814) 328-2188
Kevyn Perry,accumsan.sed@outlook.org,"P.O. Box 263, 7743 Sodales Rd.",981775,Limburg,India,1-784-978-1141
Joshua Sutton,facilisis.eget.ipsum@hotmail.couk,221-2801 Sed Ave,1126-3782,Jigawa,Austria,(352) 622-2219
Miranda Wilkins,a.auctor.non@outlook.org,360-5158 Malesuada Avenue,90777,Vestland,Costa Rica,(253) 286-5130
Cullen Blair,aliquam.enim.nec@yahoo.net,2991 Ut Rd.,37512,Haryana,Belgium,(444) 414-8391
Virginia Taylor,aliquam.arcu@outlook.couk,"P.O. Box 268, 1069 Adipiscing Rd.",19125-84660,New South Wales,Ukraine,1-256-225-2141
Carl Garner,vitae.diam.proin@hotmail.edu,332-7196 Sed St.,98556,Zeeland,France,(631) 473-3068
Jaime Collins,ipsum.cursus@aol.ca,7697 Sit Rd.,4513,Västra Götalands län,Austria,(982) 666-2766
Mari Hess,rhoncus.proin@hotmail.couk,171-9543 Feugiat St.,936741,South Jeolla,Ukraine,(397) 173-1035
Quinlan Miller,est.ac@icloud.com,8809 Diam Av.,NO7 3PN,Central Luzon,Australia,1-147-664-1465
Cooper Dillon,morbi@aol.couk,599-1661 Nam Road,6688,Central Region,Peru,1-666-372-5058
Stacey Yang,convallis@google.org,4349 Odio Avenue,17271,Huáběi,New Zealand,1-481-748-2785
Byron Orr,semper.dui@icloud.com,Ap #393-5850 Metus. Rd.,17634-40321,Nevada,Indonesia,(215) 889-4357
Noah Duke,enim.commodo@icloud.edu,Ap #216-1760 Pharetra Street,8257,Xīnán,Vietnam,1-662-576-5637
Audra Kelley,orci.adipiscing@hotmail.edu,4770 Parturient St.,76752,Andalucía,Peru,1-342-594-8531
Yolanda Cruz,mattis@hotmail.ca,Ap #573-6708 Eu Road,0672-9751,Delhi,Singapore,1-261-557-3676
Isaac Bean,auctor.mauris.vel@hotmail.net,Ap #423-4785 Nisl St.,H3W 6C8,Alberta,Vietnam,(764) 525-8521
Quin Christensen,morbi@outlook.edu,"8177 At, Avenue",41222,FATA,Colombia,1-889-637-8081
Brennan Ferguson,integer@hotmail.net,787 Libero Avenue,Q1 6IQ,Agder,Ukraine,1-414-378-4114
Price Bond,orci@google.edu,375-5684 Convallis Rd.,33313-62681,Cauca,Italy,(445) 913-5389
Carlos Berg,diam.nunc@hotmail.net,"P.O. Box 473, 7502 Sem Av.",9425,Kirovohrad oblast,New Zealand,1-232-858-0527
Melanie Stephens,blandit.nam.nulla@yahoo.edu,134-2169 Nisl Street,50723,Aragón,Peru,(372) 427-6836
Gary Gray,risus.quis.diam@aol.net,6676 Ligula. St.,858138,FATA,Pakistan,(577) 878-3676
Bree Arnold,donec.egestas@aol.ca,"P.O. Box 567, 3675 Velit. Road",61752,Santa Catarina,Belgium,(856) 667-8386
Nicole Campos,mauris.morbi.non@hotmail.net,Ap #827-1714 Arcu Avenue,576196,Huádōng,Norway,(755) 605-0897
Paul Reyes,ligula.aenean@aol.org,404-1641 Imperdiet St.,4614,Namen,Canada,(610) 272-8647
Calista Marks,eu.nibh@hotmail.edu,Ap #702-409 Orci. Road,7846,La Rioja,Costa Rica,1-666-204-1512
Malik Workman,nunc.quis@hotmail.org,"P.O. Box 478, 8891 Orci St.",21796,Gauteng,Spain,1-434-818-2175
Zia Caldwell,vulputate.eu.odio@hotmail.edu,Ap #796-5539 Donec St.,8876,Salzburg,Canada,1-635-712-7182
Calvin Frye,erat@yahoo.couk,5747 Tristique Avenue,U4X 7HC,Manitoba,South Africa,(849) 292-2571
Chadwick Franco,nec@hotmail.ca,"551-9743 Eget, Rd.",146455,Île-de-France,Canada,(504) 721-6193
Francis Burch,a.facilisis@aol.ca,"P.O. Box 831, 4917 Amet Rd.",70736,Southeast Sulawesi,Italy,1-262-338-9843
Silas Conley,fusce.feugiat@aol.edu,Ap #834-950 Ullamcorper. Rd.,18684,Quảng Trị,Brazil,1-401-783-1856
Heidi Potts,eu.eros@outlook.edu,Ap #832-4250 Ligula Road,54390,Limón,Costa Rica,1-878-677-1575
Timothy Bright,morbi.metus@hotmail.edu,8868 Quisque Av.,U1 5ZD,Valle del Cauca,Pakistan,1-910-128-5112
Mari Hansen,eu.turpis.nulla@hotmail.couk,"7877 Eu, Avenue",549217,Aisén,Belgium,(772) 724-2636
Merritt Nielsen,ut@hotmail.couk,9347 Nulla Rd.,21618,Andalucía,France,1-830-261-1166
Wylie Matthews,phasellus.dapibus@hotmail.net,Ap #897-2340 Mauris St.,28228,Nunavut,Austria,1-560-499-5307
Wynne Wooten,nunc.mauris@icloud.org,464-8185 Leo Ave,3235,Sląskie,Spain,1-665-314-8344
Mariko Nolan,nunc@aol.couk,7510 Vitae Rd.,619116,Västra Götalands län,Ukraine,(627) 428-4180
Cooper Flynn,lacus.pede@google.ca,196-2019 Amet Rd.,543796,North Island,Pakistan,(556) 217-8556
Neville Lawson,elit.erat@hotmail.edu,"P.O. Box 354, 4896 Ligula Av.",87651,Jalisco,Australia,(880) 673-5748
Gareth Hoffman,nulla.aliquet@yahoo.ca,Ap #239-8761 Mauris Ave,OA6I 4EP,Campania,Ukraine,1-338-117-8198
Ginger Young,tristique.senectus.et@hotmail.net,5468 Nibh Rd.,89158-179,Leinster,Mexico,(724) 537-2208
Reuben Erickson,orci@yahoo.edu,8971 Enim Av.,3658,Podkarpackie,Philippines,(244) 458-3725
William Mcknight,ullamcorper.duis@hotmail.com,Ap #519-6265 Nulla Road,33-833,Antwerpen,Philippines,1-872-327-6316
Linus Martinez,libero.integer@outlook.org,Ap #478-5639 Et Street,4216,Friesland,Pakistan,(921) 644-8025
Cole Kelley,sed.id@yahoo.org,776-468 Pellentesque Rd.,327943,Arequipa,Turkey,1-751-518-7024
Wayne Osborn,pede@aol.ca,6677 Commodo Street,4380,Louisiana,Singapore,(373) 465-6896
Grace Downs,suspendisse.commodo@protonmail.com,757-5967 Nisi. Rd.,53525,Carmarthenshire,United Kingdom,(775) 987-3102
Porter Dennis,morbi.neque@outlook.com,"P.O. Box 718, 6103 Ullamcorper. Rd.",6661-3586,Overijssel,Russian Federation,1-312-396-2669
Steven Riley,ac.arcu.nunc@aol.org,Ap #140-5344 Nulla Street,31-976,Jeju,Costa Rica,(423) 639-5788
Sopoline Mcmahon,duis@outlook.ca,908-2639 Malesuada Rd.,35771,Cà Mau,Vietnam,(477) 971-8127
Britanni Butler,vel.faucibus@protonmail.couk,"1407 In, St.",77-944,Gyeonggi,Nigeria,1-794-543-1302
Damian Hays,montes@aol.org,122-1934 Donec Road,670224,Burgenland,Singapore,(835) 135-5523
Mariam Bradford,cursus.a@hotmail.net,911-9249 Nec St.,33-52,Rivers,Colombia,1-409-743-2177
Wynter Weiss,adipiscing@outlook.edu,Ap #508-7548 Sed Av.,55-87,Colorado,India,(904) 808-8673
Stewart Knapp,non.luctus@icloud.ca,627-2131 Integer Rd.,497241,Ulster,Vietnam,1-364-523-6518
Len Lancaster,ad.litora@yahoo.org,374-6079 Faucibus Road,50116,Tarapacá,Norway,1-373-662-6584
Karly Branch,ante.ipsum.primis@aol.net,"358-459 Consequat, Road",623189,Noord Holland,India,(430) 317-4207
Rebekah Mccray,enim.nunc@google.couk,834-8855 Pellentesque Ave,51458,Zuid Holland,New Zealand,(833) 744-5646
Alma Strickland,non@google.edu,"P.O. Box 400, 8993 Aliquam Avenue",7698 BG,East Region,Sweden,(497) 184-2852
Ifeoma Britt,nascetur@protonmail.ca,787-449 At Avenue,542568,Connacht,Costa Rica,1-182-821-7170
Macy Solis,morbi@google.couk,3278 In Rd.,13443-15225,Quảng Ninh,Mexico,1-262-885-8636
Irma Kelly,egestas.a.dui@protonmail.edu,596-6018 Penatibus Avenue,641648,West-Vlaanderen,Turkey,1-630-620-0412
Jin Harris,mi.lorem.vehicula@icloud.com,"P.O. Box 832, 6593 Duis Rd.",R2I 5HT,Arica y Parinacota,Indonesia,1-481-446-7248
Drake Jenkins,eleifend@outlook.ca,"P.O. Box 152, 2427 Convallis Avenue",59497,Jeju,United States,1-131-521-4655
Isaiah Diaz,pharetra.sed@icloud.com,Ap #775-5907 Accumsan Avenue,84373-24389,Los Ríos,Brazil,(904) 932-9930
Logan Goodwin,dictum.eleifend@protonmail.net,"P.O. Box 146, 6919 Nunc Street",40-329,Huádōng,Italy,(208) 740-3423
Denton Pace,pellentesque.ultricies@aol.edu,Ap #780-1084 Malesuada Rd.,33883102,Southwestern Tagalog Region,Singapore,1-584-873-2786
Alfonso Sargent,lorem.luctus.ut@icloud.couk,"842-7917 Lorem, Ave",878686,Euskadi,Russian Federation,1-870-642-3155
Abbot Dalton,proin.ultrices@google.org,"P.O. Box 668, 6987 Gravida Av.",0645,Île-de-France,United States,(875) 765-4696
Hedy Hodges,erat.volutpat@icloud.edu,1703 Pellentesque Av.,8565-5739,Tasmania,Turkey,(589) 250-3208
Lenore Maddox,ac.urna@outlook.com,832-4065 Cras Street,3413,Guanacaste,Spain,(542) 362-0172
Kenneth Witt,placerat@google.couk,"Ap #516-3492 Ultrices, Rd.",2483 HU,Borno,New Zealand,(692) 847-2568
Dana Dalton,nascetur@aol.org,Ap #232-2598 Scelerisque Ave,628148,Emilia-Romagna,Brazil,(826) 333-9597
Barrett Ross,quisque.fringilla.euismod@google.couk,370-4940 Sed St.,5806,Trøndelag,Belgium,1-616-617-7565
Ima Briggs,auctor.ullamcorper@icloud.edu,Ap #438-9956 Fusce St.,6076,Brecknockshire,Canada,(786) 215-7360
Tatiana Hebert,tellus.aenean@icloud.net,"Ap #480-4602 Nec, Road",2169,South Sulawesi,Poland,(276) 825-4225
Leandra Carlson,et.ipsum@hotmail.edu,Ap #690-578 Tempus Av.,53361,Xīnán,France,1-432-243-7260
Hammett Steele,adipiscing.lobortis.risus@yahoo.org,879-6447 Facilisis Avenue,263952,Yukon,Poland,(641) 229-8144
Timon Michael,phasellus.dolor@outlook.couk,278-2697 Lacus. Ave,6338-0543,San José,China,(594) 493-5442
Wyoming Moreno,morbi.neque@icloud.ca,"P.O. Box 408, 4376 Eu Ave",86663-019,Lambayeque,Pakistan,(882) 307-1344
Shea Baldwin,in.tincidunt@protonmail.org,"P.O. Box 836, 1794 Gravida Rd.",73652-25828,Rogaland,Russian Federation,(515) 291-2305
Pandora Shepherd,magna.a@outlook.com,850-9652 Non Av.,3217,Piura,Peru,(686) 625-7415
Debra Stewart,sem.elit@aol.org,474-7651 Vulputate Rd.,69485,North Region,Singapore,1-874-337-7358
Beau Burns,ut.sagittis@icloud.ca,Ap #929-9748 Dignissim St.,2134,South Island,Ukraine,1-480-349-3532
Quinn Holland,commodo.at@hotmail.org,Ap #156-9979 At Road,601627,Ancash,China,(696) 387-1473
Phyllis Lopez,non.dapibus@google.ca,773-586 Mi St.,2909 JV,Novosibirsk Oblast,China,(451) 733-6752
Gareth Pope,sem.elit@icloud.net,448-2357 Nonummy Street,62457-524,Anambra,United Kingdom,1-278-484-7386
Garrison Bush,lacus.mauris@google.ca,565-797 Aliquam Road,37-82,North Jeolla,Poland,1-572-657-2537
Hedley Frederick,augue@hotmail.com,878 Nisi St.,16895,Bauchi,Poland,(672) 627-4887
Branden Baird,tellus.non.magna@aol.com,9297 Sit Ave,63651,Rio Grande do Sul,Norway,1-977-123-8246
Tasha Boyle,dictum.ultricies@hotmail.couk,Ap #151-3326 Magna Road,4556,Pays de la Loire,Peru,(718) 340-6324
Yoshio Rocha,dolor.sit@google.edu,Ap #977-6368 Cursus Road,68545,South Australia,India,1-529-352-2283
Cynthia Galloway,purus.mauris@google.edu,"P.O. Box 432, 9355 Erat Av.",55451,Balochistan,Pakistan,(879) 636-3898
Stella Luna,sem.egestas@icloud.edu,"Ap #656-1725 Est, Ave",732692,South Island,Canada,(663) 973-6076
Jolie Frank,fringilla.mi@hotmail.edu,Ap #688-2702 Massa Road,3178,Vladimir Oblast,Australia,(670) 228-3285
Jasper Craft,et.ipsum.cursus@google.couk,878-1817 Et Avenue,2126,Cagayan Valley,Canada,1-174-313-7001
Courtney Abbott,blandit.congue.in@hotmail.edu,"P.O. Box 366, 3143 Risus Street",46165,Đồng Nai,Turkey,1-543-821-7161
Jolene Graham,dignissim@hotmail.net,Ap #655-4469 Libero Street,19862,Małopolskie,Belgium,1-479-568-4211
Coby Rush,proin@protonmail.org,Ap #963-1952 At Road,5815,San José,Russian Federation,1-721-519-7369
Carl Buckner,eu.dolor.egestas@icloud.edu,193-9576 Pellentesque St.,11915,Sinaloa,United Kingdom,1-883-203-8696
Shana George,est@hotmail.com,6882 Laoreet Avenue,6642 KB,Oryol Oblast,Chile,1-264-283-5397
Vernon Mercer,cursus.vestibulum.mauris@aol.edu,Ap #671-3924 Dolor Ave,28158,Zhōngnán,Chile,(264) 582-8194
Gillian Owen,rutrum@google.couk,Ap #381-288 Ante Ave,4481 FK,Australian Capital Territory,New Zealand,(572) 411-1784
Sonia Perez,dui.semper@aol.com,1031 Et Ave,485328,East Kalimantan,South Africa,(604) 651-7192
Signe Grant,vestibulum.massa.rutrum@hotmail.net,527-9508 Parturient Rd.,357434,Northumberland,Brazil,1-865-466-7014
Iona Guerrero,dictum.proin.eget@yahoo.org,198-5518 Velit. Avenue,47241,Delhi,Spain,1-383-746-8964
Jolene Savage,purus.in.molestie@protonmail.org,"148-3866 Non, Road",LE8 9EJ,British Columbia,Spain,(922) 318-2452
Madaline Hodges,adipiscing.non@aol.ca,9295 Mollis St.,226836,Khmelnytskyi oblast,Germany,1-717-195-0003
Fatima Spence,id@hotmail.com,Ap #494-726 Sem Rd.,5105,Cartago,Norway,(536) 815-4518
Michael Guerrero,massa@hotmail.ca,662-7240 Eget Rd.,642357,Jigawa,China,1-486-960-2614
Buckminster Cobb,euismod.ac@yahoo.ca,"Ap #773-7711 Montes, Av.",88449,Hải Dương,Sweden,1-261-489-6723
Xenos Burks,urna.vivamus@icloud.net,601-5799 Aliquam Ave,65149-824,Île-de-France,Singapore,(743) 697-3772
Aaron Whitney,ridiculus.mus.donec@hotmail.couk,Ap #685-1915 Enim Av.,47191,Southwestern Tagalog Region,Pakistan,1-675-682-8304
Kyle Cummings,mollis.vitae@yahoo.net,519-9225 Interdum. St.,3537,Berlin,United Kingdom,1-742-488-3922
Zane Goff,nunc.nulla@aol.ca,815-3712 Ante. Av.,435679,Delta,United Kingdom,1-438-284-9745
Cade Davis,a.felis@aol.net,"P.O. Box 834, 4269 Tempus Ave",5660,North-East Region,Philippines,1-857-674-0531
Jaime Cohen,sem@google.com,124 Augue St.,524394,South Island,Canada,(301) 747-8242
Bethany Glenn,dolor.dapibus@outlook.com,586-5147 Nulla. Road,71136,Leinster,Singapore,(223) 377-9773
Kyla Kirk,purus.sapien.gravida@icloud.ca,"8056 Dolor, Street",02808,Stockholms län,Vietnam,1-712-988-6854
Abbot Hobbs,augue.id.ante@hotmail.edu,"P.O. Box 471, 1334 Torquent Road",5296,Wiltshire,Vietnam,(191) 534-4817
Uriah Ruiz,blandit.nam.nulla@yahoo.edu,8029 Vestibulum Avenue,Q84 2ZQ,South Kalimantan,Mexico,(534) 684-4813
Summer Haney,diam.vel@google.com,"P.O. Box 299, 6323 Elementum, Ave",76001,Zhōngnán,Mexico,1-853-235-2539
Giselle Vasquez,hendrerit.neque.in@icloud.edu,"580-3161 Ac, St.",239883,Rio Grande do Sul,Nigeria,(515) 469-0818
Charissa Jordan,vivamus.molestie@protonmail.ca,"P.O. Box 155, 617 Ac St.",7213-8774,Morelos,Colombia,(917) 759-6190
Colin Parker,augue@yahoo.com,Ap #884-4778 Blandit Rd.,2534-3656,Sucre,India,(201) 734-7652
Victor Pickett,nascetur.ridiculus@aol.org,Ap #621-704 Nulla Rd.,36356,Vestland,Sweden,(421) 318-1403
Virginia Lamb,auctor.quis@aol.org,321-3785 At Ave,111785,Franche-Comté,United States,1-658-837-3798
Caldwell Thompson,est@icloud.couk,"592-3090 Eu, Avenue",3684,Gävleborgs län,South Africa,(557) 382-3439
Isabelle Dickerson,urna@outlook.com,"P.O. Box 309, 8085 Ut Avenue",1654,Xīběi,Turkey,(641) 412-5443
Mikayla Quinn,ornare.facilisis.eget@icloud.net,412-5577 Sodales Ave,438313,Stockholms län,Australia,(547) 351-1112
Mason Alford,mauris.vestibulum.neque@protonmail.couk,1302 Risus Av.,961933,South Island,China,(803) 631-6670
Kato Carpenter,augue.porttitor@icloud.edu,Ap #733-7550 Cursus. Rd.,976641,Xīběi,Nigeria,(968) 431-6483
Kellie Green,urna@google.com,Ap #466-9840 Erat Road,215654,Davao Region,Austria,(437) 899-3736
Edan Lowe,vivamus.nisi@aol.net,906-8110 Eu St.,3582,Languedoc-Roussillon,Chile,1-801-988-7871
Adrienne Richardson,nunc.ac@yahoo.ca,575-9417 Nascetur Road,55611,Eastern Cape,Ukraine,(475) 847-2615
Hadley Frederick,felis.adipiscing@hotmail.ca,Ap #103-3688 Ac St.,5326-3821,East Region,Costa Rica,1-739-841-2592
Stacey Savage,dolor.sit@google.net,"826-4967 Pede, St.",58446,Abruzzo,Pakistan,(728) 734-1835
Geraldine Walsh,eu@aol.com,Ap #833-3206 Lacus. Road,46515,Cordillera Administrative Region,Sweden,(595) 659-9177
Guy Morris,donec.porttitor@google.org,162-8644 Molestie. Av.,76033,Jeju,Austria,(462) 425-3732
Brendan Pope,mus.proin.vel@protonmail.couk,3853 Augue Road,43781,Gujarat,Ukraine,(313) 171-4709
Shea Brady,lobortis.tellus.justo@hotmail.net,124-312 Dis Av.,2811,Oregon,Turkey,(411) 890-4835
Scott Albert,mattis@aol.ca,Ap #837-2197 Lacus. Ave,5546-8260,Andhra Pradesh,Singapore,(178) 821-2497
Clinton Avery,et.rutrum@google.net,395 Metus. Rd.,81234,Veneto,Chile,1-122-195-7224
Graham Roach,sed@google.com,Ap #148-4421 Praesent Street,42456,Benue,South Africa,(248) 122-2880
Ingrid Wilcox,phasellus.vitae@yahoo.net,Ap #249-1999 Lacus. St.,283251,Guaviare,Chile,(851) 125-2662
Zahir Griffith,libero@aol.edu,254-8222 Molestie Road,761136,North Island,India,(186) 254-9269
Wayne Morgan,mi.aliquam@aol.couk,965-4059 Sed Rd.,923312,Cartago,United Kingdom,(677) 513-1602
Hop Knight,nascetur.ridiculus@google.com,271-668 Eros. St.,401021,Manipur,United States,(504) 826-4427
Heidi Lucas,sapien.gravida.non@icloud.edu,434-5010 Fermentum Avenue,20661,West Sumatra,Sweden,1-767-726-5704
Davis Gonzalez,arcu.imperdiet@aol.couk,465-7380 Lobortis Rd.,38487869,Western Cape,Netherlands,(563) 548-5048
Blake Nieves,consequat.auctor.nunc@icloud.edu,859-6289 Arcu. Road,34318,Lima,Turkey,(402) 564-5278
Rhonda Reid,ligula.consectetuer@protonmail.edu,"P.O. Box 380, 3771 Eleifend, Rd.",75-12,North Region,France,1-333-651-0186
Ray Silva,ut.quam@yahoo.couk,"910-7720 Vel, St.",5385,Nova Scotia,Canada,1-996-750-7697
Zelda Brown,nostra.per.inceptos@aol.couk,"8712 Nec, Road",39-26,Midi-Pyrénées,China,(866) 376-5854
Shaine Estes,tellus.phasellus@aol.ca,"Ap #523-4123 Eget, St.",4922,Magallanes y Antártica Chilena,Austria,(218) 892-4878
Samson Franklin,tellus.eu@hotmail.com,Ap #219-8556 Nulla Rd.,188876,Pará,Mexico,1-983-885-5897
Josephine Browning,sodales@hotmail.ca,Ap #713-1051 Orci Ave,187658,łódzkie,Vietnam,1-436-935-2711
Ivan Stone,vehicula.pellentesque@google.net,Ap #899-631 A Ave,75135,Borno,Sweden,1-261-571-6538
Keaton Barron,in@aol.net,Ap #795-462 Dictum Ave,11207,Benue,Chile,(845) 175-1860
Elliott Yang,massa@google.com,136-8198 Mauris St.,263463,Zakarpattia oblast,Costa Rica,(573) 476-8374
Keane Benjamin,elit@yahoo.couk,Ap #649-9913 Ac Street,445273,South Chungcheong,Austria,1-245-944-5471
Miriam Mcclain,diam@protonmail.couk,104-7923 Urna Rd.,3223 XC,Luxemburg,Poland,1-683-691-7318
Oliver Ware,quis.turpis@icloud.couk,727-7579 Mauris. St.,199550,Maharastra,United Kingdom,(585) 764-3713
Reed Dunn,lacus.pede.sagittis@yahoo.net,Ap #485-8056 Lectus St.,43252-285,Rheinland-Pfalz,Philippines,1-670-223-0612
Kelly Rodgers,et@aol.edu,"P.O. Box 166, 1325 Quam Road",9261,Assam,Poland,1-227-180-1853
Martin Howell,eu.erat.semper@google.ca,437-3882 Blandit Ave,83542-814,West Region,Nigeria,(674) 818-7119
Robin Benton,curabitur.ut.odio@hotmail.ca,Ap #454-9245 Sit Rd.,74322,Zamboanga Peninsula,Vietnam,1-561-846-2671
Bell Sweeney,vestibulum.neque@outlook.org,Ap #417-3873 Elit. Ave,62145,Coahuila,Singapore,1-270-960-3143
Yolanda Heath,vel@hotmail.com,4505 Eu Avenue,211837,North Island,Belgium,1-510-263-3863
Deborah Delgado,aenean.gravida@google.couk,633-3563 Pede St.,17477,South Jeolla,Nigeria,1-978-534-5683
Mollie Rivas,maecenas@hotmail.ca,Ap #465-6536 Tempor Road,40102,Moscow Oblast,Colombia,1-548-565-9488
Allen Richardson,feugiat.lorem.ipsum@aol.ca,"P.O. Box 691, 8750 Non St.",D8 7TE,Mecklenburg-Vorpommern,Nigeria,(231) 735-7203
Jamalia Le,feugiat.non.lobortis@hotmail.net,"P.O. Box 735, 9067 Suspendisse Av.",81631,Puno,Philippines,1-834-643-1623
Raja Colon,sodales.mauris@outlook.org,Ap #163-6140 Condimentum. Rd.,88856-691,Zuid Holland,New Zealand,1-279-319-4735
Cora Spence,nullam.suscipit.est@yahoo.couk,616-9346 Euismod Street,912635,Oslo,Germany,(293) 649-0107
Ezekiel Dudley,ligula.nullam@outlook.couk,Ap #912-4069 Egestas. Av.,6156,Alberta,New Zealand,1-853-392-1305
Macy Melendez,neque@protonmail.com,"318-6626 Ac, Street",28139,Östergötlands län,Belgium,1-813-977-7764
Chandler Patel,integer.mollis@aol.couk,Ap #511-5023 Et Ave,610974,Ulster,New Zealand,1-642-656-0307
Sawyer Johns,elit.dictum@icloud.couk,Ap #634-4143 Pede Ave,498868,Ancash,Peru,1-735-577-2263
Adrian Battle,nisi@hotmail.net,4876 Curabitur Avenue,8054-5124,Samsun,Norway,1-415-959-6397
Cadman Diaz,nisl.maecenas@outlook.com,"6752 Ullamcorper, Avenue",55577,Quảng Ninh,Peru,1-768-287-1149
Autumn Clements,lacus.cras@outlook.ca,398-9085 Mi. Ave,8174,Cartago,United Kingdom,1-247-265-2685
Kareem Strong,a@google.org,2837 Magna Av.,154614,Noord Holland,United States,(694) 657-2844
Iona Mercer,ultrices@yahoo.net,Ap #914-4102 Augue Av.,51163,Vlaams-Brabant,Chile,1-506-611-1774
Tobias Pratt,aliquam.rutrum@outlook.org,Ap #564-2912 Nascetur St.,423448,North West,Chile,1-218-174-0487
Roanna Mercer,ac@yahoo.ca,134-7670 Mauris Street,3580,Dnipropetrovsk oblast,Germany,1-908-401-2038
Iliana Whitaker,donec.est@google.edu,4424 Nec Av.,R6E 8T3,South Island,New Zealand,(357) 513-8288
Candice Pope,fermentum.vel@icloud.org,847-4526 Sociis St.,82238-15916,Kherson oblast,Costa Rica,1-629-750-2029
Lionel Workman,tellus.justo.sit@google.ca,Ap #276-574 Pellentesque Road,18146,Nariño,Ireland,1-563-848-3702
Demetrius Salazar,pharetra.nam@protonmail.ca,616-1161 Ultrices Avenue,50854,Idaho,Germany,1-406-225-6235
Adele Leblanc,velit.cras@hotmail.com,Ap #245-2961 Facilisis Street,83352-85464,łódzkie,New Zealand,1-641-221-3638
Basia Maynard,morbi.neque.tellus@protonmail.com,"P.O. Box 163, 4511 Integer St.",2233,Dalarnas län,Pakistan,(148) 738-0384
Edward Patrick,dictum.eu@hotmail.couk,5357 Odio. Av.,143876,Noord Holland,Austria,(637) 328-4523
Upton Armstrong,tempor.erat.neque@aol.ca,"P.O. Box 746, 8031 Vivamus Av.",2752,Kirov Oblast,Ukraine,1-828-321-2518
Susan Stone,mattis.ornare.lectus@hotmail.ca,704-2102 Nullam St.,220392,Jeju,Canada,1-176-961-0988
Ebony Holmes,nostra.per@icloud.com,"Ap #551-9543 Vitae, Street",568869,Maranhão,Poland,(737) 715-3072
Wyatt Walls,nullam.feugiat.placerat@hotmail.ca,724-9510 Sit St.,55168,Ancash,China,1-653-554-6116
Blaze Carpenter,maecenas.mi@aol.net,Ap #453-3075 Et Rd.,6472,Picardie,Singapore,(331) 481-7667
Uriah Chandler,hendrerit.neque.in@outlook.couk,5284 Egestas. Av.,71504-11858,Saarland,Mexico,1-774-657-8191
Howard Orr,dictum@google.couk,"P.O. Box 820, 7721 Lorem Av.",68617,Iowa,Russian Federation,1-386-481-5418
Claudia Beck,est.tempor@protonmail.ca,Ap #691-1653 In St.,1535 IY,Minnesota,Spain,(833) 445-1349
Clare Mejia,metus.sit@icloud.couk,149-4393 Augue St.,82606,Kano,Austria,1-346-460-3151
Emi Bennett,a.aliquet@google.net,"P.O. Box 434, 1947 Convallis Rd.",3318,Rivne oblast,China,1-784-440-7438
Carissa Alston,aliquam.tincidunt@icloud.net,"8366 In, Rd.",15152,Alberta,United Kingdom,1-727-567-6866
Lucas Glass,molestie.tellus.aenean@aol.edu,770-6581 Rutrum. St.,2158,Valle d'Aosta,Canada,1-230-239-3722
Inga Rocha,fringilla@yahoo.couk,485-4998 Dignissim Ave,9602,Lakshadweep,Italy,1-765-575-5555
Jacob Frederick,eu.arcu.morbi@icloud.com,7252 Nunc Rd.,775513,Valle d'Aosta,Canada,1-278-311-6924
Jaquelyn Patton,laoreet.libero@google.org,Ap #356-4837 Nibh Avenue,645710,Upper Austria,India,(607) 878-6622
Angelica Wolf,ut.semper@protonmail.com,"P.O. Box 495, 5925 Enim Avenue",6151,Northern Territory,Mexico,(418) 879-2314
Kenneth Ortiz,aliquam.ornare.libero@yahoo.couk,"1386 Quis, St.",06551,Oost-Vlaanderen,Singapore,(467) 882-6168
Quinn Tyler,a@outlook.net,"P.O. Box 419, 752 Mollis. St.",01864,Los Ríos,Austria,(461) 929-6447
Kylee Hardin,sem.vitae@google.edu,"P.O. Box 251, 2489 Ut, Road",7866,Basilicata,Singapore,(851) 922-2112
Hedda Rollins,a@hotmail.ca,Ap #996-2866 Sem Street,44638,Hertfordshire,United Kingdom,1-942-778-4234
Gareth Cruz,gravida.sit@yahoo.org,Ap #226-1747 Pellentesque Avenue,75057,Dalarnas län,Peru,(526) 461-8206
Erin Dale,amet.consectetuer@hotmail.org,Ap #939-5335 Aliquam Avenue,918647,Coahuila,Ukraine,1-345-865-0747
Micah Schultz,aliquet.metus.urna@outlook.net,3249 Ligula. Av.,4343,Puno,Costa Rica,(226) 627-3217
Philip Schultz,eleifend.vitae@hotmail.edu,4431 Pede. Road,7307,Flevoland,Canada,1-936-413-9214
Quinn Whitley,maecenas@google.org,"Ap #160-5814 Amet, Rd.",21501,Stockholms län,Netherlands,(331) 608-4619
Theodore Cooper,lorem@google.com,934-7583 Donec Road,360495,Nordrhein-Westphalen,Netherlands,(785) 835-8214
Quin Ingram,parturient.montes.nascetur@hotmail.net,"P.O. Box 466, 1258 Magnis Av.",52663,Västra Götalands län,Ukraine,1-530-158-4019
Brett Abbott,tincidunt.neque@icloud.com,"P.O. Box 740, 5930 Et, Road",76042,Jönköpings län,Netherlands,(408) 434-8178
Iola Oneal,elit.pharetra.ut@icloud.org,367-6293 Mi Rd.,3580 HF,South Australia,Singapore,(286) 231-0545
Zeph Cardenas,blandit.at@aol.com,"P.O. Box 521, 9278 Risus. St.",288703,Baja California,United States,1-718-707-9813
Lee Gentry,arcu.vestibulum@yahoo.org,1303 Consectetuer Rd.,4204,Banffshire,Philippines,(138) 418-5499
Vincent Freeman,molestie.sed@google.ca,260-4228 Fermentum Av.,31050,Trøndelag,France,1-895-375-6131
Karyn White,est.nunc@google.org,961-3721 Vulputate Ave,84893,Dunbartonshire,Austria,(966) 588-7887
Asher Frost,sed.dictum@aol.org,"3544 Et, Road",214445,Xīběi,Italy,(311) 361-9118
Jolie Solomon,pellentesque@aol.org,Ap #324-3008 Feugiat Av.,7861,South Sulawesi,Brazil,1-121-867-4238
Alexis Reynolds,eu.turpis@google.org,Ap #341-8309 Vestibulum Rd.,354598,Luxemburg,Norway,(244) 337-8189
Ariana Burch,auctor.velit@protonmail.ca,Ap #526-979 Fringilla Ave,09601,Goiás,Ireland,1-627-561-1268
Mohammad Barrera,consequat.auctor.nunc@yahoo.couk,7540 Facilisis St.,1751,West-Vlaanderen,Philippines,(271) 444-4863
Idona Martin,at.pretium@google.com,Ap #469-4683 Est. Rd.,5442,Punjab,Brazil,(431) 264-7811
Miranda Gay,gravida@yahoo.edu,6462 Nec Rd.,638178,Sindh,Singapore,1-445-634-4036
Cruz Jefferson,ultrices.vivamus@icloud.couk,"P.O. Box 388, 8280 Vulputate, St.",15075,łódzkie,Peru,(795) 128-7568
Nash Everett,luctus@icloud.org,"280-4945 A, Rd.",76463,Tây Ninh,Netherlands,1-218-969-1088
Christopher Fitzpatrick,maecenas@outlook.org,Ap #417-3734 Risus Ave,75114,Eastern Cape,Ireland,1-568-869-1492
Vera Benjamin,lobortis.quam@yahoo.edu,"P.O. Box 314, 8349 Ac Rd.",22557,Central Region,Netherlands,1-668-265-3434
Brody Kelly,amet.lorem@outlook.org,3930 Euismod Road,9963,Xīnán,Chile,1-839-219-0091
Ivory Miles,mauris.molestie@yahoo.edu,"2436 Vestibulum, St.",7333,Gyeonggi,Russian Federation,1-286-243-2886
Buffy Ellison,nunc.sed@hotmail.net,"P.O. Box 371, 2286 Donec Road",57927,Cagayan Valley,China,(832) 270-6637
Karly Kemp,vestibulum.ante.ipsum@protonmail.org,Ap #588-3592 Donec Av.,25787,Odessa oblast,Singapore,1-219-748-7674
Colton Rush,a.mi@aol.net,Ap #868-9121 Adipiscing Rd.,662843,Balıkesir,New Zealand,(675) 138-5582
Galena Hatfield,sit.amet@google.couk,Ap #699-6777 Sodales St.,1172,Paraná,Canada,1-520-237-5455
Vladimir Watts,arcu.vestibulum@protonmail.net,"683-550 Aliquet, Road",61806,Cantabria,Colombia,(796) 410-8962
Linda Todd,pellentesque.eget@outlook.ca,"Ap #473-3768 Consequat, Av.",33327,South Island,China,(765) 585-9854
Shea King,curabitur.dictum.phasellus@google.com,657-3160 Malesuada Rd.,1291 LC,Xīběi,Ireland,(142) 887-4202
Keefe Salas,integer@icloud.org,Ap #632-8361 Tempus Street,886287,Yukon,China,1-872-776-1692
Phelan Nieves,nunc.mauris.sapien@icloud.net,Ap #773-5414 Luctus St.,V5 5HG,Ulster,Ukraine,(446) 689-2522
Eliana Holden,curabitur.massa.vestibulum@google.couk,Ap #457-8069 Ac Rd.,626534,Kahramanmaraş,Germany,(171) 525-8177
Kimberly Drake,molestie@hotmail.net,5440 Lectus Rd.,46823-31343,Hertfordshire,Spain,(522) 849-7787
Tasha Pollard,iaculis.aliquet@protonmail.ca,Ap #198-9635 Facilisis Road,3146,West Region,Ukraine,1-836-867-9972
Beatrice Burns,lorem.eu@google.edu,"765-6077 Elit, Rd.",98828,Vichada,Nigeria,(598) 256-1529
Gabriel Cole,phasellus.ornare.fusce@outlook.com,"P.O. Box 681, 5548 Aliquam Av.",08047,Kirov Oblast,Nigeria,1-628-965-3238
Gabriel Larsen,ut.quam@google.ca,"P.O. Box 140, 7646 Sociosqu St.",73812,Maranhão,Sweden,1-533-155-3873
Vincent Hurley,gravida@hotmail.edu,176-3873 Magna Rd.,M8 1HP,Maluku,Colombia,(518) 583-6173
Wayne Wong,nunc@icloud.couk,892-6390 Justo Rd.,524461,South Australia,Ireland,1-151-532-6157
Whoopi Washington,vivamus@icloud.net,"P.O. Box 362, 6767 Integer Ave",6253,Utrecht,Vietnam,1-223-724-5148
Cleo Bates,ante.dictum@aol.edu,"5085 Mauris, Av.",239557,Rheinland-Pfalz,Brazil,1-625-256-4352
Hasad Manning,dolor.vitae.dolor@icloud.ca,495-2129 Porttitor Road,4736,Volyn oblast,New Zealand,(859) 638-2524
Evan Bowen,neque.non@hotmail.com,4738 Ac Avenue,3131,Waals-Brabant,Mexico,(759) 188-1136
Whitney Dillon,suspendisse.commodo@outlook.ca,Ap #666-6624 Vivamus Street,A1Y 5A8,Ivano-Frankivsk oblast,Turkey,1-880-777-3360
Maia Goodwin,velit.pellentesque@outlook.edu,"P.O. Box 531, 3477 Eu Ave",0793-1491,Ternopil oblast,Australia,(262) 258-1823
Bradley Higgins,nec.cursus.a@yahoo.ca,252 Maecenas Rd.,3745,Tyrol,Norway,1-267-494-3423
Illiana Chambers,integer.mollis@outlook.com,946-7833 Mauris St.,385186,Podlaskie,Poland,1-807-867-8968
Henry Hernandez,convallis.est@icloud.net,Ap #255-4075 Massa Rd.,347875,Madrid,South Korea,(375) 973-3216
Myles Irwin,nulla.facilisi@outlook.com,617-7739 Quisque Road,66485,Ancash,Italy,1-511-678-5753
Sybill Rogers,sed.sem.egestas@yahoo.com,Ap #660-3222 Nulla Road,N2 1IM,Calabarzon,Spain,(174) 757-0872
Stephen Cole,neque.nullam.nisl@aol.couk,Ap #220-6977 Rutrum Street,62041,Jeju,Pakistan,(252) 536-4738
Ginger Drake,ullamcorper.viverra@aol.com,202-876 Mauris Street,254746,Bắc Kạn,Poland,(490) 400-9418
Hamilton Houston,donec.tempor.est@icloud.org,1268 Purus Rd.,76665,Burgenland,United States,1-887-817-3182
Yvonne Mendez,feugiat.tellus.lorem@yahoo.ca,Ap #458-9822 Consectetuer Rd.,60326,Cesar,Germany,1-682-575-4147
Walker Santana,rutrum.fusce.dolor@yahoo.org,Ap #729-6774 At Av.,59658,Katsina,India,(377) 246-1884
Emery Carpenter,diam.lorem@protonmail.net,716-8423 Risus Rd.,24661,Tamil Nadu,Spain,(673) 683-4383
Wendy Hunt,duis@yahoo.ca,658-578 Fermentum St.,37543,Namen,Singapore,(236) 348-5615
Cameron Newman,dolor.dapibus@icloud.ca,"P.O. Box 634, 3029 Quam Rd.",3461,Alajuela,Brazil,(414) 976-7318
Moana Ellison,phasellus.at@outlook.ca,"P.O. Box 112, 608 Consectetuer Road",1653,Aquitaine,Austria,(381) 252-6664
Benedict Lamb,nibh.enim@outlook.net,274-8919 Nulla Road,54395-683,Utrecht,Pakistan,(477) 717-1774
Wing Macias,enim.consequat@hotmail.org,471-3022 Cum Av.,34641,Île-de-France,Ukraine,1-540-379-5318
Raphael Warner,augue.scelerisque.mollis@hotmail.couk,473-7504 Imperdiet St.,6880,Caraga,Norway,1-843-895-6624
Hamilton Pollard,ultricies@hotmail.edu,"P.O. Box 861, 8371 Non, St.",162524,Murcia,Sweden,1-993-691-8210
Macon Hardy,mauris.erat@hotmail.com,"P.O. Box 254, 246 Non Ave",625186,Arica y Parinacota,Turkey,1-215-845-9358
Ingrid Schneider,egestas.blandit@icloud.ca,Ap #750-9035 Magnis St.,4602,Atacama,Singapore,(883) 701-9777
Doris Rich,augue.scelerisque.mollis@aol.ca,"Ap #433-9215 Pellentesque, Rd.",284343,Maule,China,(623) 734-8176
Scarlett Sargent,libero@protonmail.net,Ap #651-2803 Phasellus Av.,529538,Cambridgeshire,Spain,1-762-546-4159
Acton Harris,vitae.purus.gravida@outlook.org,Ap #973-7912 Lacus. Rd.,08744-52690,Xīnán,India,1-244-448-2674
Alexa Key,eu.nulla.at@outlook.ca,Ap #510-5130 Pede St.,08111,Zeeland,Italy,(688) 721-4753
Candace Moreno,lorem.ut.aliquam@yahoo.com,971-9449 Non Avenue,7773,Central Luzon,Ireland,1-632-767-1323
Hamilton Huber,et.libero@aol.ca,8587 Egestas. Ave,862541,Leinster,Pakistan,(756) 305-9946
Amir Savage,arcu.morbi.sit@hotmail.org,Ap #559-2640 Per Street,589523,Saskatchewan,Sweden,1-424-767-6441
Dennis Shepherd,placerat.orci@aol.com,Ap #173-2854 Eu Street,9481,Vorarlberg,United Kingdom,(401) 845-7237
Heather England,est.nunc@aol.org,"246 Convallis, Av.",59-240,West Sulawesi,Sweden,(727) 587-5857
Ingrid Pitts,nunc@protonmail.com,Ap #519-9810 Sit Av.,13405,Champagne-Ardenne,South Africa,1-363-272-5087
Daniel Pate,leo@aol.net,268-8998 Aliquet Rd.,37549,Haute-Normandie,Philippines,1-363-232-6156
Conan Gill,lorem.lorem.luctus@protonmail.com,8420 Iaculis Street,14986-77166,Penza Oblast,Austria,(578) 963-5773
Judah Holmes,aliquam.gravida@aol.couk,Ap #311-3065 Cras St.,4751,Comunitat Valenciana,Peru,1-432-808-5541
Astra Giles,eu.arcu.morbi@aol.com,Ap #633-8425 Turpis. Road,6473,Berlin,Italy,(616) 917-9157
Willa Richmond,viverra.donec.tempus@protonmail.com,9883 Ligula Av.,242280,New South Wales,South Africa,1-259-143-3079
Ethan Dyer,felis.donec@outlook.org,219-8011 Amet Ave,390787,Antioquia,Germany,1-466-210-7153
Rhea Houston,donec@google.edu,Ap #955-6181 Scelerisque Rd.,854375,Gaziantep,Ukraine,(184) 730-1863
Shaeleigh Powell,a.aliquet@protonmail.org,726-3046 Luctus Road,4065 WK,Balochistan,United States,1-433-328-2661
Montana Boyd,erat@aol.org,164-3300 Mauris Ave,875562,Tiền Giang,New Zealand,1-534-925-8781
Driscoll White,eget@hotmail.couk,"Ap #126-4017 Ornare, Road",477320,Paraná,Australia,(768) 775-2568
Kylynn Hodge,proin@yahoo.ca,Ap #249-7646 Eros Ave,0616,Baja California,Poland,1-122-411-4284
Lani Mcdonald,eleifend.vitae@outlook.edu,164-3892 Mollis Av.,18844,Bình Phước,Poland,1-784-513-9853
Regan Nelson,non.arcu@google.com,"P.O. Box 559, 7521 Semper Avenue",5819-5954,Kahramanmaraş,India,1-640-975-5643
Jerome Spears,tempus.scelerisque.lorem@outlook.com,Ap #321-7042 Dis St.,527359,Poitou-Charentes,Netherlands,(225) 638-5845
Amena O'donnell,facilisis.magna@yahoo.com,826-6664 Fringilla. Ave,616037,North West,Singapore,(934) 463-4475
Echo Hopper,mi.ac.mattis@yahoo.net,"P.O. Box 399, 312 At Rd.",06264,North-East Region,France,1-515-180-4524
Stuart Cameron,cursus.luctus@hotmail.com,"P.O. Box 708, 7797 Ultricies Avenue",666215,Pomorskie,Austria,1-536-337-4873
Otto Wade,magna.sed@yahoo.com,"P.O. Box 724, 2039 Purus, St.",2624 MF,Zamboanga Peninsula,France,(575) 354-9889
Montana Bender,cursus.non@yahoo.org,702-4770 Massa St.,178213,North Island,Vietnam,1-408-915-1446
Chadwick Clarke,mauris.sit.amet@hotmail.net,Ap #857-1845 Orci Ave,1576,Nordland,Vietnam,1-870-116-5586
Ronan Mercer,magna@hotmail.couk,Ap #989-1841 Nunc Road,762868,Warmińsko-mazurskie,South Africa,1-348-684-0705
Xavier Murphy,posuere.at@aol.com,"P.O. Box 480, 901 Dis Avenue",27467,Maranhão,Indonesia,1-575-434-8262
Lynn Saunders,convallis.convallis@outlook.com,Ap #385-7870 Ut Road,441918,Gelderland,South Africa,1-758-264-3831
Ebony Mejia,ac.ipsum.phasellus@yahoo.edu,"4848 Vulputate, Ave",1591,Navarra,South Korea,(971) 571-5625
Madeson Wilkerson,vitae.mauris@icloud.ca,725 Vitae Rd.,55270,Östergötlands län,Turkey,(132) 114-8019
Nissim Huff,id.ante.dictum@aol.couk,721-2665 Malesuada Av.,5689,Basilicata,Colombia,1-940-668-4638
Caldwell Conrad,purus.duis.elementum@aol.org,Ap #677-5981 Augue St.,4490,Valparaíso,South Africa,(197) 867-2565
Lyle Marquez,proin.dolor@protonmail.net,"P.O. Box 870, 6385 Nulla. Rd.",32251,Quảng Ngãi,Chile,(887) 418-0412
Kasimir Mcintyre,lobortis.quam.a@icloud.edu,Ap #462-3623 Etiam Av.,458611,Akwa Ibom,Chile,(632) 477-6631
Unity Bernard,sem.egestas@aol.org,Ap #277-2471 Blandit St.,20506,Saarland,Netherlands,(674) 642-9668
Davis Blackburn,montes.nascetur@yahoo.ca,"Ap #850-7301 Ac, Street",8118,Lombardia,Vietnam,1-267-104-9608
Samson Alston,nibh.dolor@outlook.org,"Ap #385-3374 Adipiscing, Rd.",61436,Somerset,Philippines,(624) 942-8319
Kylie Ortiz,fusce.feugiat@outlook.com,7823 Pharetra. Street,7035,Lambayeque,Chile,(226) 579-7125
Astra Walter,nibh.lacinia.orci@outlook.ca,Ap #131-6166 Volutpat. Street,Y4N 5T5,Overijssel,South Korea,1-580-878-7134
Audra Lamb,non@hotmail.couk,Ap #279-7715 Hymenaeos. St.,578237,North West,China,1-776-647-0878
MacKensie Cummings,mus.proin.vel@hotmail.couk,"P.O. Box 656, 4594 Mauris Rd.",41347-22337,Coquimbo,Vietnam,(892) 664-1854
Fay Rhodes,fusce.aliquet.magna@google.net,4593 Mi Street,85723,Molise,Turkey,(647) 936-9503
Roary Kaufman,nibh.dolor@protonmail.org,"990-5600 Sem, St.",3043,Balochistan,Ukraine,1-450-841-4629
Lucas Martin,id.ante.dictum@aol.ca,Ap #950-6587 Neque. St.,8156,Lima,South Africa,(662) 546-4173
Azalia White,vulputate.dui@icloud.couk,Ap #393-7677 Dolor Road,36165,Rajasthan,Russian Federation,1-104-405-8455
Idola Melendez,varius.orci@outlook.edu,Ap #267-2007 Ligula St.,851571,Saint Petersburg City,Netherlands,(327) 883-2525
Karyn Perkins,sit.amet@hotmail.org,"P.O. Box 559, 5001 Et Road",115798,Bretagne,South Africa,(777) 650-7219
Blaze Coffey,ut.ipsum@outlook.edu,Ap #365-6073 Donec Ave,9764,Pays de la Loire,Netherlands,(854) 843-1550
Rylee Dixon,elit.elit@outlook.net,450-8159 Massa. Rd.,192851,Oost-Vlaanderen,Pakistan,1-724-156-8076
Amanda Mccall,sit.amet@icloud.edu,939-6222 Massa. Av.,34743,Overijssel,Peru,1-427-412-5324
Hollee Farley,non.enim@hotmail.org,"1297 Ut, Avenue",81346-38182,Kherson oblast,India,1-173-920-8452
Plato Barnes,nulla@yahoo.ca,"P.O. Box 472, 3746 Sociis Street",41107,Innlandet,South Africa,1-235-837-6182
Scarlett Copeland,non.enim@yahoo.edu,2985 Mauris Av.,137559,Southwestern Tagalog Region,Nigeria,(724) 623-2242
Imogene Clemons,purus.in@hotmail.ca,Ap #370-5593 Amet Rd.,8974,FATA,United States,(614) 812-6504
Dominic Fitzpatrick,erat@icloud.net,566-4290 Sed Road,47479,Puntarenas,Vietnam,1-850-534-7752
Aurelia Gilliam,at.libero@icloud.ca,Ap #450-4295 Nisl. Rd.,51606,Puebla,Russian Federation,(846) 735-1836
Ezra James,orci.lobortis.augue@google.com,Ap #240-993 Egestas St.,2848,Tamil Nadu,Germany,1-886-741-1822
Hilel Garner,adipiscing.fringilla@protonmail.ca,613-1305 Posuere St.,5464,Ancash,Russian Federation,1-610-885-4712
Fulton Greene,egestas.urna.justo@hotmail.ca,419-9092 Cum Avenue,8526-8354,Delta,Canada,1-345-512-5585
Emerson Deleon,vel.arcu@aol.edu,"Ap #939-5115 Ullamcorper, St.",84878,Östergötlands län,India,1-762-344-9800
Tobias Rosales,molestie.tellus@yahoo.org,9562 Integer Rd.,62635-33171,Junín,South Korea,1-741-618-8464
Barrett Fox,morbi@google.edu,Ap #204-6850 Nisl Avenue,75398,Bahia,United States,(813) 355-8466
Ralph Hess,malesuada@google.couk,"442-2694 Est, Av.",0734,Vestland,Australia,1-372-420-9183
Felix Fowler,diam.sed@hotmail.net,"P.O. Box 328, 8381 Aliquet Street",144611,Aisén,France,(324) 736-4427
Zeus Terry,tempus.non.lacinia@hotmail.org,"P.O. Box 755, 5008 Nunc Rd.",854755,Sachsen,Mexico,(331) 559-7154
Winter Hays,cursus.et@yahoo.ca,"Ap #574-4349 Lorem, Road",908544,Oxfordshire,Russian Federation,1-377-684-8628
Pandora Griffith,est.arcu@google.org,727-3618 Enim. Street,58620-426,Pernambuco,Philippines,(531) 353-3554
Erasmus Vargas,aliquam@hotmail.org,518-7757 Ut Ave,438692,Jeju,Austria,(924) 282-6762
Claudia Perry,lorem.sit.amet@yahoo.com,111-1800 Enim Rd.,912674,Sicilia,Australia,1-358-441-2436
Alexandra Rowland,lorem.vitae@icloud.edu,Ap #109-3647 Magnis Road,89595,Navarra,India,(474) 532-5525
Fleur Hancock,nunc.ut@google.ca,"P.O. Box 232, 7020 Ut Road",21811,Vaupés,Ireland,(618) 571-9752
Ezra Melton,vulputate.ullamcorper@outlook.couk,Ap #275-3639 Ac Avenue,7321,Aragón,Pakistan,(123) 453-3258
Elijah Park,sed@icloud.com,157-7048 Elit. Ave,2953-7682,North Chungcheong,Costa Rica,1-138-719-4701
Germaine Gonzalez,orci@aol.net,991-7444 Pede. Av.,8347,Northern Territory,Pakistan,(767) 885-8658
Ferris Brady,phasellus.ornare.fusce@aol.couk,9500 Maecenas Rd.,N8N 1K1,Queensland,Ukraine,(916) 941-2818
Megan Mcdowell,donec.porttitor.tellus@hotmail.org,Ap #787-7693 Nam Rd.,7422,Kirovohrad oblast,Spain,(632) 409-1433
Claudia Oliver,per.conubia@hotmail.edu,"P.O. Box 326, 6719 Rutrum Av.",97511,North Island,Austria,1-931-231-1628
Cain Prince,id.nunc@icloud.org,Ap #587-8094 Ullamcorper Rd.,21012,Samsun,Peru,1-765-858-9554
Emerald Wells,neque.non@outlook.com,Ap #456-9992 Pellentesque St.,49116,Bretagne,Sweden,1-251-282-4727
Fallon Campos,aptent.taciti@protonmail.org,261-8048 Aliquam Avenue,58575,Bretagne,India,1-883-478-4951
Rafael Clay,dui.fusce@outlook.ca,"125-8136 Urna, St.",48014,Tuyên Quang,Ireland,(311) 286-6132
Hayley Workman,dui.quis@protonmail.net,678-6355 Orci Rd.,47338,Australian Capital Territory,India,1-777-797-5343
